#aV2009  2  5  0  0   .00000000      96 DD+AD WGS84 FIT  NGA
## 1517 345600.00000000   900.00000000 54867  .0000000000000
+   31     2  3  4  5  6  7  8  9 10 11 12 13 14 15 16 17 18
+         19 20 21 22 23 24 25 26 27 28 29 30 31 32  0  0  0
+          0  0  0  0  0  0  0  0  0  0  0  0  0  0  0  0  0
+          0  0  0  0  0  0  0  0  0  0  0  0  0  0  0  0  0
+          0  0  0  0  0  0  0  0  0  0  0  0  0  0  0  0  0
++         0  0  0  0  0  0  0  0  0  0  0  0  0  0  0  0  0
++         0  0  0  0  0  0  0  0  0  0  0  0  0  0  0  0  0
++         0  0  0  0  0  0  0  0  0  0  0  0  0  0  0  0  0
++         0  0  0  0  0  0  0  0  0  0  0  0  0  0  0  0  0
++         0  0  0  0  0  0  0  0  0  0  0  0  0  0  0  0  0
%c cc cc ccc ccc cccc cccc cccc cccc ccccc ccccc ccccc ccccc
%c cc cc ccc ccc cccc cccc cccc cccc ccccc ccccc ccccc ccccc
%f  0.0000000  0.000000000  0.00000000000  0.000000000000000
%f  0.0000000  0.000000000  0.00000000000  0.000000000000000
%i    0    0    0    0      0      0      0      0         0
%i    0    0    0    0      0      0      0      0         0
/*      NGA, ST. LOUIS,MO.                                  
/*   EPHEMERIS COMPUTED FROM  3 DAYS OF DATA                
/* CCCCCCCCCCCCCCCCCCCCCCCCCCCCCCCCCCCCCCCCCCCCCCCCCCCCCCCCC
/* CCCCCCCCCCCCCCCCCCCCCCCCCCCCCCCCCCCCCCCCCCCCCCCCCCCCCCCCC
*  2009  2  5  5 15   .00000000                                                 
P  2  -7846.166216  14178.874000  20860.607016    158.559279                    
V  2 -26473.137831  -4935.812607  -6953.570937      -.014954                    
P  3   7958.362139 -23839.379267  -8317.562361    348.668836                    
V  3   8806.027609  -6596.171921  28708.376706       .052902                    
P  4 -21331.142725   6996.095980  14345.160852   -325.107738                    
V  4 -17691.124301  -5389.226416 -23097.406513      -.138797                    
P  5  15297.081569  20763.449130   6316.516357   -637.629929                    
V  5    906.933964   8906.810540 -29943.818375      -.451218                    
P  6  13029.630241 -22705.476521  -4208.142606     68.387144                    
V  6   6267.295779  -2312.178308  30551.632478      -.138678                    
P  7 -25343.701939  -7011.625020   4121.006674     22.913197                    
V  7   5572.952538  -1657.766179  31220.482647      -.002983                    
P  8 -25219.184883    564.504583  -9138.362711   -189.266176                    
V  8 -10766.376324  -3851.668631  29172.034441      -.016678                    
P  9  13775.923899  14296.248103 -18340.306577     38.769001                    
V  9 -21888.986348  -1652.161206 -18278.230459       .020283                    
P 10    187.695096  23902.130473  11055.723452    -10.608207                    
V 10  -7354.072548 -12671.693634  27478.479432      -.006071                    
P 11 -16188.195883 -13008.659361 -16932.528587      8.472676                    
V 11  21139.183599  -3611.161037 -17286.819074      -.011065                    
P 12  12150.913847  23227.817748   4694.938478   -319.103256                    
V 12   -283.727382   6347.711426 -31064.310958       .036466                    
P 13 -15418.934856  -3512.531973  21219.677878    287.489724                    
V 13  17880.866439 -20412.360108   9571.136392       .013262                    
P 14  20346.137667 -14517.867022  -8698.815586   -158.589864                    
V 14  -5986.589830   9670.284914 -29829.213658       .052872                    
P 15  -1501.487518  20656.619755 -16567.302933   -252.301211                    
V 15 -14655.427302  15341.327148  20465.524456      -.053685                    
P 16   4735.549818 -20325.311097  16357.137082     76.957212                    
V 16   8675.682048  18915.780423  21290.945006      -.027783                    
P 17 -20571.565387  12521.041673 -10936.860000     46.115787                    
V 17   7041.882257 -12419.102360 -27515.555340       .010656                    
P 18  17028.202804   7662.334603 -18812.185229    -86.364126                    
V 18   6489.708445  23423.443963  14883.843541       .036099                    
P 19    457.694990 -19165.326111 -18222.393148     32.891914                    
V 19  17292.453171 -15800.804954  17216.815740      -.005699                    
P 20 -14005.620078 -21513.039827   6790.796990     91.678434                    
V 20   -354.198980  -9343.460218 -29732.854824      -.010929                    
P 21  26479.378127   4733.748336   -175.930208     30.558429                    
V 21    -83.349997   3154.128710  30754.714822      -.018251                    
P 22  14528.632046  -5573.700936 -21367.834040    205.548834                    
V 22   8899.748380  26097.695996   -808.697629      -.006940                    
P 23  -8766.230344 -12589.893118  21604.189709    386.446462                    
V 23  17926.317955 -20925.499743  -5171.337807       .006806                    
P 24  19160.675024  13307.223558  12577.533771    163.058083                    
V 24 -16095.764450   -693.671877  25793.882115       .030092                    
P 25 -21918.510030  -9546.056176  11721.934731    221.664222                    
V 25  14509.470243  -1277.838095  27100.442584       .252246                    
P 26  -7618.357126  21549.764678 -13560.824361     42.142120                    
V 26 -12322.057255  11141.668108  26108.016259       .030010                    
P 27 -19739.712213   8319.571193 -15106.693637     22.103373                    
V 27 -20022.316098  -3963.039830  22887.201398       .030921                    
P 28 -14812.984538   2618.235080 -21491.094989    -23.716736                    
V 28  -9126.032565 -26738.692720   2654.901526      -.000899                    
P 29  15269.757049   5032.787069  21239.497779    -12.697433                    
V 29 -16900.190699  20729.597419   7307.911049       .031340                    
P 30  17083.078124  14345.483256  14119.252657    124.311574                    
V 30   5070.521606  17989.183211 -23725.161724       .023953                    
P 31  18984.257890  -8573.229722  16767.447283    -50.398968                    
V 31  20313.644905   4748.591128 -20714.545915      -.014336                    
P 32  -7823.391276 -25513.656329    790.693502    298.098422                    
V 32   2226.437270  -1159.867146 -31690.412741      -.031431                    
EOF
